ONEWEB-0243             
1 48774U 21045H   25229.52012183 -.00000059  00000+0 -19126-3 0  9991
2 48774  87.9082 319.7936 0002072  85.9478 274.1889 13.15548933204430
ONEWEB-0222             
1 48775U 21045J   25229.19924896 -.00000039  00000+0 -13669-3 0  9992
2 48775  87.9075 319.8113 0001782  94.6867 265.4466 13.15550077204433
ONEWEB-0244             
1 48776U 21045K   25229.52962775  .00000082  00000+0  18267-3 0  9993
2 48776  87.9077 319.7266 0002118  95.1599 264.9773 13.15549236205044
ONEWEB-0247             
1 48777U 21045L   25229.52647190  .00000019  00000+0  17474-4 0  9995
2 48777  87.9067 319.7992 0002201  71.9585 288.1785 13.15547688204487
ONEWEB-0245             
1 48778U 21045M   25229.52170576 -.00000001  00000+0 -35974-4 0  9993
2 48778  87.9071 319.7636 0001720  96.1961 263.9365 13.15549295204458
ONEWEB-0229             
1 48779U 21045N   25229.51695259  .00000002  00000+0 -27430-4 0  9991
2 48779  87.9068 319.7641 0002509  95.2793 264.8623 13.15549041204489
ONEWEB-0228             
1 48780U 21045P   25229.55037058  .00000154  00000+0  37472-3 0  9997
2 48780  87.9077 319.7313 0001980  95.0602 265.0754 13.15548528204405
ONEWEB-0232             
1 48781U 21045Q   25229.52487795 -.00000088  00000+0 -26742-3 0  9998
2 48781  87.9071 319.7302 0001936  97.6688 262.4662 13.15549492204726
ONEWEB-0231             
1 48782U 21045R   25229.50267786 -.00000065  00000+0 -20778-3 0  9991
2 48782  87.9066 319.7873 0001990  89.9191 270.2167 13.15547412204410
ONEWEB-0234             
1 48783U 21045S   25229.54058526  .00000192  00000+0  47619-3 0  9998
2 48783  87.9072 319.7476 0001438 125.1382 234.9883 13.15547057204551
ONEWEB-0238             
1 48784U 21045T   25229.54085789  .00000119  00000+0  28078-3 0  9997
2 48784  87.9069 319.7443 0001707 108.6868 251.4448 13.15547800204452
ONEWEB-0240             
1 48785U 21045U   25229.48604113  .00000095  00000+0  21917-3 0  9997
2 48785  87.9077 319.7381 0001632  91.3274 268.8043 13.15550768204471
ONEWEB-0246             
1 48786U 21045V   25229.48049906  .00000156  00000+0  38035-3 0  9998
2 48786  87.9082 319.7513 0002055  94.6819 265.4546 13.15547289204347
ONEWEB-0210             
1 48787U 21045W   25229.53121076  .00000051  00000+0  10028-3 0  9990
2 48787  87.9077 319.7405 0002245  81.6860 278.4525 13.15548806204397
ONEWEB-0214             
1 48788U 21045X   25229.53993578  .00000158  00000+0  38635-3 0  9997
2 48788  87.9073 319.7271 0002288  89.8683 270.2710 13.15550308204368
ONEWEB-0221             
1 48789U 21045Y   25229.01466680  .00000145  00000+0  35239-3 0  9993
2 48789  87.9068 319.8594 0001890  91.7894 268.3453 13.15547597204386
ONEWEB-0213             
1 48790U 21045Z   25229.23173890  .00000081  00000+0  18027-3 0  9992
2 48790  87.9071 319.8242 0001955  90.4869 269.6486 13.15548677204472
