[{"OBJECT_NAME":"ONEWEB-0243","OBJECT_ID":"2021-045H","EPOCH":"2025-08-17T12:28:58.526112","MEAN_MOTION":13.15548933,"ECCENTRICITY":0.0002072,"INCLINATION":87.9082,"RA_OF_ASC_NODE":319.7936,"ARG_OF_PERICENTER":85.9478,"MEAN_ANOMALY":274.1889,"EPHEMERIS_TYPE":0,"CLASSIFICATION_TYPE":"U","NORAD_CAT_ID":48774,"ELEMENT_SET_NO":999,"REV_AT_EPOCH":20443,"BSTAR":-0.00019126,"MEAN_MOTION_DOT":-5.9e-7,"MEAN_MOTION_DDOT":0},{"OBJECT_NAME":"ONEWEB-0222","OBJECT_ID":"2021-045J","EPOCH":"2025-08-17T04:46:55.110144","MEAN_MOTION":13.15550077,"ECCENTRICITY":0.0001782,"INCLINATION":87.9075,"RA_OF_ASC_NODE":319.8113,"ARG_OF_PERICENTER":94.6867,"MEAN_ANOMALY":265.4466,"EPHEMERIS_TYPE":0,"CLASSIFICATION_TYPE":"U","NORAD_CAT_ID":48775,"ELEMENT_SET_NO":999,"REV_AT_EPOCH":20443,"BSTAR":-0.00013669,"MEAN_MOTION_DOT":-3.9e-7,"MEAN_MOTION_DDOT":0},{"OBJECT_NAME":"ONEWEB-0244","OBJECT_ID":"2021-045K","EPOCH":"2025-08-17T12:42:39.837600","MEAN_MOTION":13.15549236,"ECCENTRICITY":0.0002118,"INCLINATION":87.9077,"RA_OF_ASC_NODE":319.7266,"ARG_OF_PERICENTER":95.1599,"MEAN_ANOMALY":264.9773,"EPHEMERIS_TYPE":0,"CLASSIFICATION_TYPE":"U","NORAD_CAT_ID":48776,"ELEMENT_SET_NO":999,"REV_AT_EPOCH":20504,"BSTAR":0.00018267,"MEAN_MOTION_DOT":8.2e-7,"MEAN_MOTION_DDOT":0},{"OBJECT_NAME":"ONEWEB-0247","OBJECT_ID":"2021-045L","EPOCH":"2025-08-17T12:38:07.172160","MEAN_MOTION":13.15547688,"ECCENTRICITY":0.0002201,"INCLINATION":87.9067,"RA_OF_ASC_NODE":319.7992,"ARG_OF_PERICENTER":71.9585,"MEAN_ANOMALY":288.1785,"EPHEMERIS_TYPE":0,"CLASSIFICATION_TYPE":"U","NORAD_CAT_ID":48777,"ELEMENT_SET_NO":999,"REV_AT_EPOCH":20448,"BSTAR":1.7474e-5,"MEAN_MOTION_DOT":1.9e-7,"MEAN_MOTION_DDOT":0},{"OBJECT_NAME":"ONEWEB-0245","OBJECT_ID":"2021-045M","EPOCH":"2025-08-17T12:31:15.377664","MEAN_MOTION":13.15549295,"ECCENTRICITY":0.000172,"INCLINATION":87.9071,"RA_OF_ASC_NODE":319.7636,"ARG_OF_PERICENTER":96.1961,"MEAN_ANOMALY":263.9365,"EPHEMERIS_TYPE":0,"CLASSIFICATION_TYPE":"U","NORAD_CAT_ID":48778,"ELEMENT_SET_NO":999,"REV_AT_EPOCH":20445,"BSTAR":-3.5974e-5,"MEAN_MOTION_DOT":-1.0e-8,"MEAN_MOTION_DDOT":0},{"OBJECT_NAME":"ONEWEB-0229","OBJECT_ID":"2021-045N","EPOCH":"2025-08-17T12:24:24.703776","MEAN_MOTION":13.15549041,"ECCENTRICITY":0.0002509,"INCLINATION":87.9068,"RA_OF_ASC_NODE":319.7641,"ARG_OF_PERICENTER":95.2793,"MEAN_ANOMALY":264.8623,"EPHEMERIS_TYPE":0,"CLASSIFICATION_TYPE":"U","NORAD_CAT_ID":48779,"ELEMENT_SET_NO":999,"REV_AT_EPOCH":20448,"BSTAR":-2.743e-5,"MEAN_MOTION_DOT":2.0e-8,"MEAN_MOTION_DDOT":0},{"OBJECT_NAME":"ONEWEB-0228","OBJECT_ID":"2021-045P","EPOCH":"2025-08-17T13:12:32.018112","MEAN_MOTION":13.15548528,"ECCENTRICITY":0.000198,"INCLINATION":87.9077,"RA_OF_ASC_NODE":319.7313,"ARG_OF_PERICENTER":95.0602,"MEAN_ANOMALY":265.0754,"EPHEMERIS_TYPE":0,"CLASSIFICATION_TYPE":"U","NORAD_CAT_ID":48780,"ELEMENT_SET_NO":999,"REV_AT_EPOCH":20440,"BSTAR":0.00037472,"MEAN_MOTION_DOT":1.54e-6,"MEAN_MOTION_DDOT":0},{"OBJECT_NAME":"ONEWEB-0232","OBJECT_ID":"2021-045Q","EPOCH":"2025-08-17T12:35:49.454880","MEAN_MOTION":13.15549492,"ECCENTRICITY":0.0001936,"INCLINATION":87.9071,"RA_OF_ASC_NODE":319.7302,"ARG_OF_PERICENTER":97.6688,"MEAN_ANOMALY":262.4662,"EPHEMERIS_TYPE":0,"CLASSIFICATION_TYPE":"U","NORAD_CAT_ID":48781,"ELEMENT_SET_NO":999,"REV_AT_EPOCH":20472,"BSTAR":-0.00026742,"MEAN_MOTION_DOT":-8.8e-7,"MEAN_MOTION_DDOT":0},{"OBJECT_NAME":"ONEWEB-0231","OBJECT_ID":"2021-045R","EPOCH":"2025-08-17T12:03:51.367104","MEAN_MOTION":13.15547412,"ECCENTRICITY":0.000199,"INCLINATION":87.9066,"RA_OF_ASC_NODE":319.7873,"ARG_OF_PERICENTER":89.9191,"MEAN_ANOMALY":270.2167,"EPHEMERIS_TYPE":0,"CLASSIFICATION_TYPE":"U","NORAD_CAT_ID":48782,"ELEMENT_SET_NO":999,"REV_AT_EPOCH":20441,"BSTAR":-0.00020778,"MEAN_MOTION_DOT":-6.5e-7,"MEAN_MOTION_DDOT":0},{"OBJECT_NAME":"ONEWEB-0234","OBJECT_ID":"2021-045S","EPOCH":"2025-08-17T12:58:26.566464","MEAN_MOTION":13.15547057,"ECCENTRICITY":0.0001438,"INCLINATION":87.9072,"RA_OF_ASC_NODE":319.7476,"ARG_OF_PERICENTER":125.1382,"MEAN_ANOMALY":234.9883,"EPHEMERIS_TYPE":0,"CLASSIFICATION_TYPE":"U","NORAD_CAT_ID":48783,"ELEMENT_SET_NO":999,"REV_AT_EPOCH":20455,"BSTAR":0.00047619,"MEAN_MOTION_DOT":1.92e-6,"MEAN_MOTION_DDOT":0},{"OBJECT_NAME":"ONEWEB-0238","OBJECT_ID":"2021-045T","EPOCH":"2025-08-17T12:58:50.121696","MEAN_MOTION":13.155478,"ECCENTRICITY":0.0001707,"INCLINATION":87.9069,"RA_OF_ASC_NODE":319.7443,"ARG_OF_PERICENTER":108.6868,"MEAN_ANOMALY":251.4448,"EPHEMERIS_TYPE":0,"CLASSIFICATION_TYPE":"U","NORAD_CAT_ID":48784,"ELEMENT_SET_NO":999,"REV_AT_EPOCH":20445,"BSTAR":0.00028078,"MEAN_MOTION_DOT":1.19e-6,"MEAN_MOTION_DDOT":0},{"OBJECT_NAME":"ONEWEB-0240","OBJECT_ID":"2021-045U","EPOCH":"2025-08-17T11:39:53.953632","MEAN_MOTION":13.15550768,"ECCENTRICITY":0.0001632,"INCLINATION":87.9077,"RA_OF_ASC_NODE":319.7381,"ARG_OF_PERICENTER":91.3274,"MEAN_ANOMALY":268.8043,"EPHEMERIS_TYPE":0,"CLASSIFICATION_TYPE":"U","NORAD_CAT_ID":48785,"ELEMENT_SET_NO":999,"REV_AT_EPOCH":20447,"BSTAR":0.00021917,"MEAN_MOTION_DOT":9.5e-7,"MEAN_MOTION_DDOT":0},{"OBJECT_NAME":"ONEWEB-0246","OBJECT_ID":"2021-045V","EPOCH":"2025-08-17T11:31:55.118784","MEAN_MOTION":13.15547289,"ECCENTRICITY":0.0002055,"INCLINATION":87.9082,"RA_OF_ASC_NODE":319.7513,"ARG_OF_PERICENTER":94.6819,"MEAN_ANOMALY":265.4546,"EPHEMERIS_TYPE":0,"CLASSIFICATION_TYPE":"U","NORAD_CAT_ID":48786,"ELEMENT_SET_NO":999,"REV_AT_EPOCH":20434,"BSTAR":0.00038035,"MEAN_MOTION_DOT":1.56e-6,"MEAN_MOTION_DDOT":0},{"OBJECT_NAME":"ONEWEB-0210","OBJECT_ID":"2021-045W","EPOCH":"2025-08-17T12:44:56.609664","MEAN_MOTION":13.15548806,"ECCENTRICITY":0.0002245,"INCLINATION":87.9077,"RA_OF_ASC_NODE":319.7405,"ARG_OF_PERICENTER":81.686,"MEAN_ANOMALY":278.4525,"EPHEMERIS_TYPE":0,"CLASSIFICATION_TYPE":"U","NORAD_CAT_ID":48787,"ELEMENT_SET_NO":999,"REV_AT_EPOCH":20439,"BSTAR":0.00010028,"MEAN_MOTION_DOT":5.1e-7,"MEAN_MOTION_DDOT":0},{"OBJECT_NAME":"ONEWEB-0214","OBJECT_ID":"2021-045X","EPOCH":"2025-08-17T12:57:30.451392","MEAN_MOTION":13.15550308,"ECCENTRICITY":0.0002288,"INCLINATION":87.9073,"RA_OF_ASC_NODE":319.7271,"ARG_OF_PERICENTER":89.8683,"MEAN_ANOMALY":270.271,"EPHEMERIS_TYPE":0,"CLASSIFICATION_TYPE":"U","NORAD_CAT_ID":48788,"ELEMENT_SET_NO":999,"REV_AT_EPOCH":20436,"BSTAR":0.00038635,"MEAN_MOTION_DOT":1.58e-6,"MEAN_MOTION_DDOT":0},{"OBJECT_NAME":"ONEWEB-0221","OBJECT_ID":"2021-045Y","EPOCH":"2025-08-17T00:21:07.211520","MEAN_MOTION":13.15547597,"ECCENTRICITY":0.000189,"INCLINATION":87.9068,"RA_OF_ASC_NODE":319.8594,"ARG_OF_PERICENTER":91.7894,"MEAN_ANOMALY":268.3453,"EPHEMERIS_TYPE":0,"CLASSIFICATION_TYPE":"U","NORAD_CAT_ID":48789,"ELEMENT_SET_NO":999,"REV_AT_EPOCH":20438,"BSTAR":0.00035239,"MEAN_MOTION_DOT":1.45e-6,"MEAN_MOTION_DDOT":0},{"OBJECT_NAME":"ONEWEB-0213","OBJECT_ID":"2021-045Z","EPOCH":"2025-08-17T05:33:42.240960","MEAN_MOTION":13.15548677,"ECCENTRICITY":0.0001955,"INCLINATION":87.9071,"RA_OF_ASC_NODE":319.8242,"ARG_OF_PERICENTER":90.4869,"MEAN_ANOMALY":269.6486,"EPHEMERIS_TYPE":0,"CLASSIFICATION_TYPE":"U","NORAD_CAT_ID":48790,"ELEMENT_SET_NO":999,"REV_AT_EPOCH":20447,"BSTAR":0.00018027,"MEAN_MOTION_DOT":8.1e-7,"MEAN_MOTION_DDOT":0}]
